COSMOS 2419 (714)       
1 28915U 05050A   17122.73027737 -.00000017  00000-0  00000-0 0  9993
2 28915  65.4756  67.3851 0017483 348.7120 138.9297  2.13110349 88366
COSMOS 2425 (716)       
1 29670U 06062A   17122.61170997 -.00000000  00000-0  10000-3 0  9996
2 29670  65.4831 306.3982 0021760 351.7635  97.5910  2.13104986 80564
COSMOS 2426 (717)       
1 29671U 06062B   17122.61439490 -.00000000  00000-0  10000-3 0  9993
2 29671  65.5028 306.4871 0017293 157.3559 152.7186  2.13102998 80563
COSMOS 2424 (715)       
1 29672U 06062C   17122.66880509 -.00000000  00000-0  10000-3 0  9990
2 29672  65.4863 306.4076 0016664 156.0425  11.1785  2.13102221 80568
COSMOS 2433 (720)       
1 32275U 07052A   17122.75294595 -.00000018  00000-0  10000-3 0  9996
2 32275  65.4908  67.1600 0004431 293.4985  96.3585  2.13104716 74085
COSMOS 2432 (719)       
1 32276U 07052B   17122.69253156 -.00000017  00000-0  10000-3 0  9997
2 32276  65.5026  67.2319 0013920 333.5360 322.9451  2.13104140 74072
COSMOS 2434 (721)       
1 32393U 07065A   17122.79529235 -.00000001  00000-0  00000-0 0  9995
2 32393  65.1011 305.5624 0005878  95.2630 216.8983  2.13102923 72788
COSMOS 2436 (723)       
1 32395U 07065C   17122.74699957 -.00000001  00000-0  10000-3 0  9995
2 32395  65.1100 305.6099 0015920   7.9733 315.6003  2.13104331 72718
COSMOS 2443 (725)       
1 33379U 08046B   17120.73452116 -.00000010  00000-0  00000-0 0  9995
2 33379  65.4194  66.6123 0016154 187.6639 355.0262  2.13102493 66906
COSMOS 2456 (730)       
1 36111U 09070A   17122.73840306  .00000002  00000-0  00000-0 0  9994
2 36111  64.1783 185.1303 0005235 305.9127 133.5375  2.13102906 57458
COSMOS 2457 (733)       
1 36112U 09070B   17122.65342617  .00000002  00000-0  00000-0 0  9998
2 36112  64.1595 185.0526 0006252 178.8740 324.1547  2.13101561 57459
COSMOS 2458 (734)       
1 36113U 09070C   17122.53370197  .00000003  00000-0  10000-3 0  9995
2 36113  64.1663 185.0667 0001772 319.6462 139.4582  2.13102134 57453
COSMOS 2459 (731)       
1 36400U 10007A   17122.63992561 -.00000019  00000-0  10000-3 0  9990
2 36400  65.3987  66.2758 0029761 350.1306 175.4781  2.13102356 55804
COSMOS 2461 (735)       
1 36401U 10007B   17122.71642206 -.00000020  00000-0  10000-3 0  9990
2 36401  65.3925  66.2513 0006317  45.3424  89.5467  2.13102388 55803
COSMOS 2460 (732)       
1 36402U 10007C   17122.71820215 -.00000020  00000-0  10000-3 0  9999
2 36402  65.3825  66.2235 0002566 327.6234 210.0029  2.13101808 55802
COSMOS 2465 (737)       
1 37138U 10041B   17122.74886994 -.00000002  00000-0  00000-0 0  9999
2 37138  64.6994 305.5735 0034994 168.3519 152.8111  2.13105972 51872
COSMOS 2464 (736)       
1 37139U 10041C   17122.63021392 -.00000002  00000-0  00000-0 0  9991
2 37139  64.7062 305.5778 0024305  16.8869  36.3716  2.13102639 51871
COSMOS 2471 (701K)      
1 37372U 11009A   17122.69288470 -.00000020  00000-0  00000-0 0  9993
2 37372  65.3809  66.1715 0008237 247.1140  46.2740  2.13107720 48075
COSMOS 2474 (742)       
1 37829U 11055A   17122.74529905  .00000002  00000-0  00000-0 0  9997
2 37829  64.5025 185.6759 0009441 251.7749  52.9600  2.13101957 43443
COSMOS 2476 (744)       
1 37867U 11064A   17122.77230625  .00000001  00000-0  00000-0 0  9999
2 37867  64.4826 185.7481 0018670 245.2220 126.1625  2.13102034 42809
COSMOS 2477 (745)       
1 37868U 11064B   17122.64914443  .00000002  00000-0  00000-0 0  9994
2 37868  64.4907 185.7955 0016507 246.9659 209.0779  2.13101847 42753
COSMOS 2475 (743)       
1 37869U 11064C   17122.61812397  .00000002  00000-0  00000-0 0  9997
2 37869  64.4982 185.7874 0021406 271.6715 116.9393  2.13101946 42768
COSMOS 2485 (747)       
1 39155U 13019A   17122.73365005  .00000002  00000-0  00000-0 0  9991
2 39155  64.6516 185.7685 0018925 240.2658 146.4967  2.13102002 31276
COSMOS 2492 (754)       
1 39620U 14012A   17122.54919045 -.00000019  00000-0  10000-3 0  9993
2 39620  65.2721  66.1725 0017336 330.5180 308.7968  2.13103483 24217
COSMOS 2500 (755)       
1 40001U 14032A   17122.58607873 -.00000019  00000-0  00000-0 0  9993
2 40001  65.2119  66.1705 0005284 231.3656 299.3693  2.13102900 22431
COSMOS 2501 (702K)      
1 40315U 14075A   17122.61349973 -.00000004  00000-0  00000-0 0  9990
2 40315  64.4328 306.9369 0013712 205.1241 153.3060  2.13098602 18836
COSMOS 2514 (751)       
1 41330U 16008A   17122.34656456 -.00000018  00000-0  00000-0 0  9998
2 41330  65.0132  66.3363 0008720 232.0421 294.8223  2.13103481  9594
COSMOS 2516 (753)       
1 41554U 16032A   17122.74514656 -.00000003  00000-0  00000-0 0  9996
2 41554  64.6532 306.6845 0009610 216.0063 149.4850  2.13101664  7218
